[{"OBJECT_NAME":"STARLINK-4253","OBJECT_ID":"2022-076U","EPOCH":"2026-03-09T11:30:39.693312","MEAN_MOTION":15.08837514,"ECCENTRICITY":0.00011418,"INCLINATION":53.2168,"RA_OF_ASC_NODE":95.0645,"ARG_OF_PERICENTER":99.2323,"MEAN_ANOMALY":260.8799,"EPHEMERIS_TYPE":0,"CLASSIFICATION_TYPE":"U","NORAD_CAT_ID":53004,"ELEMENT_SET_NO":999,"REV_AT_EPOCH":20281,"BSTAR":-1.997955e-6,"MEAN_MOTION_DOT":-3.2e-6,"MEAN_MOTION_DDOT":0},{"OBJECT_NAME":"DELTA 1 DEB","OBJECT_ID":"1978-026BU","EPOCH":"2026-03-09T11:22:20.910432","MEAN_MOTION":14.96481719,"ECCENTRICITY":0.00669454,"INCLINATION":98.7967,"RA_OF_ASC_NODE":254.5698,"ARG_OF_PERICENTER":166.8222,"MEAN_ANOMALY":193.4765,"EPHEMERIS_TYPE":0,"CLASSIFICATION_TYPE":"U","NORAD_CAT_ID":12227,"ELEMENT_SET_NO":999,"REV_AT_EPOCH":38498,"BSTAR":0.0006297912,"MEAN_MOTION_DOT":7.412e-5,"MEAN_MOTION_DDOT":0}]
